GPS BII-05  (PRN 17)    
1 20361U 89097A   05026.80660402 -.00000010  00000-0  00000+0 0  3214
2 20361  55.2978 289.2355 0176312 206.1756 152.9933  2.00558447101404
GPS BII-09  (PRN 15)    
1 20830U 90088A   05026.96427747 -.00000006  00000-0  00000+0 0  2479
2 20830  55.1897 286.8232 0086180 135.3949 225.3739  2.00573614105182
GPS BIIA-11 (PRN 24)    
1 21552U 91047A   05026.70968917 -.00000003  00000-0  00000+0 0  4253
2 21552  55.3748 285.4027 0093244 287.3723  71.6842  2.00737098 99362
GPS BIIA-12 (PRN 25)    
1 21890U 92009A   05027.22558387 -.00000009  00000-0  10000-3 0  4106
2 21890  54.2953  97.4692 0120124 273.1108  85.5795  2.00570732 94748
GPS BIIA-14 (PRN 26)    
1 22014U 92039A   05026.97679952 -.00000045  00000-0  10000-3 0  6833
2 22014  56.4360  43.3729 0157126  36.7690 324.3481  2.00555785 85506
GPS BIIA-15 (PRN 27)    
1 22108U 92058A   05026.40129735 -.00000013  00000-0  00000+0 0  1672
2 22108  54.5515  99.1946 0190234 240.8349 117.3101  2.00564204 90676
GPS BIIA-16 (PRN 01)    
1 22231U 92079A   05027.17143078 -.00000044  00000-0  00000+0 0  2487
2 22231  56.2943  44.1712 0062333 265.2913  94.0454  2.00569391 89261
GPS BIIA-17 (PRN 29)    
1 22275U 92089A   05026.95654028 -.00000047  00000-0  00000+0 0   811
2 22275  56.2577  41.4674 0089843 289.7259  69.3572  2.00573690 88675
GPS BIIA-19 (PRN 31)    
1 22581U 93017A   05027.09715187  .00000066  00000-0  00000+0 0  8787
2 22581  53.6257 219.3589 0121690  60.6309 300.5969  2.00570836 86713
GPS BIIA-20 (PRN 07)    
1 22657U 93032A   05027.11410934  .00000000  00000-0  10000-3 0  2476
2 22657  53.6510 219.4200 0139342 258.1388 100.3192  2.00567675 82047
GPS BIIA-21 (PRN 09)    
1 22700U 93042A   05027.08502875 -.00000008  00000-0  10000-3 0  6998
2 22700  54.6745 100.4175 0161955  64.1051 297.6209  2.00561638 84846
GPS BIIA-22 (PRN 05)    
1 22779U 93054A   05027.66989208  .00000033  00000-0  10000-3 0   766
2 22779  53.6531 158.0923 0057630  52.6823 307.8133  2.00569885 83613
GPS BIIA-23 (PRN 04)    
1 22877U 93068A   05026.72503954 -.00000001  00000-0  10000-3 0  8917
2 22877  54.7866 283.7355 0070367 358.2376   1.8118  2.00579013 82482
GPS BIIA-24 (PRN 06)    
1 23027U 94016A   05026.80279773  .00000065  00000-0  10000-3 0  9388
2 23027  53.5611 221.0045 0062058 248.6712 110.6707  2.00568417 79799
GPS BIIA-25 (PRN 03)    
1 23833U 96019A   05026.93948980  .00000064  00000-0  00000+0 0  2078
2 23833  53.1242 217.8572 0064815  32.8992 327.5170  2.00557915 64770
GPS BIIA-26 (PRN 10)    
1 23953U 96041A   05026.86099719 -.00000080  00000-0  10000-3 0  4745
2 23953  56.0789 343.4269 0063274  15.0852 345.0979  2.00574636 62562
GPS BIIA-27 (PRN 30)    
1 24320U 96056A   05027.21190134  .00000028  00000-0  00000+0 0  3287
2 24320  54.0319 160.5832 0077976  74.4991 286.3234  2.00552421 61231
GPS BIIR-02 (PRN 13)    
1 24876U 97035A   05026.80472147 -.00000045  00000-0  00000+0 0  1437
2 24876  56.5333  43.2593 0021361  45.7668 314.4584  2.00551557 55097
GPS BIIA-28 (PRN 08)    
1 25030U 97067A   05026.93406705 -.00000005  00000-0  10000-3 0   391
2 25030  55.4291 104.5684 0091154 145.2133 215.4414  2.00552243 52994
GPS BIIR-03 (PRN 11)    
1 25933U 99055A   05027.08218366  .00000008  00000-0  00000+0 0  6655
2 25933  51.7594 275.7190 0038804   7.0139 353.1196  2.00562406 38913
GPS BIIR-04 (PRN 20)    
1 26360U 00025A   05027.17782308 -.00000080  00000-0  00000+0 0  7372
2 26360  55.1412 342.0659 0020502  80.0031 280.2320  2.00550107 34618
GPS BIIR-05 (PRN 28)    
1 26407U 00040A   05027.52411564  .00000035  00000-0  00000+0 0  6843
2 26407  54.9566 163.1841 0097403 225.5240 133.6363  2.00567014 33290
GPS BIIR-06 (PRN 14)    
1 26605U 00071A   05027.11811599 -.00000046  00000-0  00000+0 0  6375
2 26605  56.2117  42.6415 0020224 258.8303 100.9893  2.00563126 30888
GPS BIIR-07 (PRN 18)    
1 26690U 01004A   05026.99114273 -.00000081  00000-0  00000+0 0  5509
2 26690  55.1511 345.0784 0056710 201.3457 158.4179  2.00558809 29299
GPS BIIR-08 (PRN 16)    
1 27663U 03005A   05027.33632980  .00000032  00000-0  10000-3 0  9045
2 27663  55.0841 162.6050 0026352 288.7240  70.9510  2.00561883 14659
GPS BIIR-09 (PRN 21)    
1 27704U 03010A   05026.90842230 -.00000004  00000-0  10000-3 0  7790
2 27704  54.4194 285.0571 0092517 179.6853 180.3884  2.00565835 13437
GPS BIIR-10 (PRN 22)    
1 28129U 03058A   05027.03015268 -.00000082  00000-0  00000+0 0  4600
2 28129  55.0043 345.6062 0052561 275.7063  83.6940  2.00562634  8147
GPS BIIR-11 (PRN 19)    
1 28190U 04009A   05026.97921777  .00000068  00000-0  10000-3 0  3650
2 28190  54.9773 225.6581 0033148 259.2440 100.4130  2.00567110  6312
GPS BIIR-12 (PRN 23)    
1 28361U 04023A   05026.76919711 -.00000049  00000-0  00000+0 0  2269
2 28361  55.1877  42.3627 0034786 130.7242 229.6287  2.00557676  4396
GPS BIIR-13 (PRN 02)    
1 28474U 04045A   05026.77209538  .00000001  00000-0  00000+0 0   858
2 28474  54.8055 282.5817 0093145 100.3570 260.7685  2.00565711  1759


